#dP2024 11 13  0  0  0.00000000      97 __u+U IGS20 FIT  IAC
## 2340 259200.00000000   900.00000000 60627 0.0000000000000
+  117   C06C07C08C09C10C11C12C13C14C16C19C20C21C22C23C24C25
+        C26C27C28C29C30C32C33C34C35C36C37C38C39C40C41C42C43
+        C44C45E02E03E04E05E06E07E08E09E10E11E12E13E14E15E18
+        E19E21E24E25E26E27E29E30E31E33E34E36G02G03G04G05G06
+        G07G08G09G10G11G12G13G14G15G16G17G18G19G20G21G22G23
+        G24G25G26G27G28G29G30G31G32J02J03J04R01R03R04R05R07
+        R08R09R11R12R14R15R16R17R18R19R20R21R22R24R26  0  0
++         7  7  7  7  7  6  7  7  6  7  5  5  6  5  5  5  5
++         5  6  5  5  5  5  5  5  5  6  6  6  7  6  6  5  5
++         6  5  4  3  4  4  4  4  4  4  4  4  4  4  5  4  4
++         4  4  4  4  4  4  4  4  4  4  4  4  3  4  3  4  4
++         3  3  3  4  4  3  3  3  3  4  3  3  4  4  3  3  3
++         3  4  4  3  4  3  3  4  4 11 11 11  7  7  7  6  6
++         6  6  6  6  6  6  6  6  6  8  7  6  6  7  7  0  0
%c M  cc GPS ccc cccc cccc cccc cccc ccccc ccccc ccccc ccccc
%c cc cc ccc ccc cccc cccc cccc cccc ccccc ccccc ccccc ccccc
%f  1.2500000  1.025000000  0.00000000000  0.000000000000000
%f  0.0000000  0.000000000  0.00000000000  0.000000000000000
%i    0    0    0    0      0      0      0      0         0
%i    0    0    0    0      0      0      0      0         0
/* INFORMATION & ANALYSIS CENTER (IAC)            FINAL DATA
/* S/V CLOCKS ARE ALIGNED TO GNSS TIME                      
/* G:C1WC2W R:C1PC2P E:C1XC5X C:C2IC6I J:C1CC2S             
/* PCV:IGS20_2317 OL/AL:FES2004  NONE     YN ORB:CoN CLK:CoN
*  2024 11 13  3 15  0.00000000
PC06  -1486.887476  36295.872661  21733.841049    430.119743
PC07 -12496.589528  26908.936689 -29896.256037   -208.795129
PC08 -17980.112018  36501.330531  10542.077330   -782.016293
PC09   2697.569637  39499.916833  15909.521273   -622.586520
PC10  -4631.489036  27625.091798 -31203.266027   -279.594499
PC11 -21596.412237  -4573.966994 -16998.298030    239.998476
PC12 -20752.341108 -18658.750297   -197.692912   -249.257879
PC13 -11990.772854  36868.587157  16363.219922     89.286365
PC14 -26829.509110   5320.149269  -5669.162150   -422.188583
PC16  -4526.549747  33899.153128  25212.951474    107.316022
PC19  25262.422647 -11280.551370  -3554.702928   -963.910738
PC20  24861.745386    359.590286  12646.270410   -910.431214
PC21  -9229.429171 -13047.591161 -22872.836503   -915.037325
PC22  11187.981584 -17252.552099 -18869.310961    178.118106
PC23  -7755.010988  26537.309396   3753.128651   -884.454779
PC24 -14898.753905  -7810.862421  22248.965236    768.024582
PC25 -15773.279561  13603.013564  18546.817275    559.470230
PC26  -5621.372335 -23995.108874  13103.746807   -376.463004
PC27  15479.461147  21566.513269  -8625.031767    395.552398
PC28    878.262403  19456.313610 -19973.684079    307.879009
PC29  17905.873059  -4611.238786  20901.292048    361.488401
PC30  23873.467633  12355.472713   7523.858686     25.639977
PC32   9166.806930  13065.041872  22897.291468   -800.885176
PC33 -25237.824483  11409.808952   3455.714921   -951.098944
PC34 -23971.423360 -10967.310586  -9140.051750    563.162902
PC35   -835.331057 -19164.977777  20245.436783    209.690297
PC36  15986.194477 -13717.756593 -18297.366460    220.353365
PC37   4963.344671  24201.532262 -12945.216112   -893.106072
PC38 -20737.687907  36486.072600   3093.394473    190.937472
PC39  -5522.433611  31376.928043  27809.854761    -10.310699
PC40 -18185.025895  20235.963230 -32269.429755   -102.233975
PC41 -12112.046968  17304.706108  18290.336246   -890.462353
PC42 -24018.464187  -1639.312090 -14101.134528   -513.931171
PC43 -18612.517863   3824.464453 -20437.769104     92.037420
PC44 -16182.139449 -20982.382530   8701.801787    650.773247
PC45   8189.302336 -26349.047816  -4285.558932   -166.333271
PE02 -24160.681924   9597.665455  14132.001423    174.353078
PE03 -27809.947290   -513.165987  10125.156565   -153.126566
PE04  13729.267005 -12726.457966 -22929.173038    -80.994894
PE05 -25193.376320 -13127.768296  -8316.757187   4801.288621
PE06   3014.196871 -16886.657090 -24141.833872    -46.849813
PE07   7496.110433  18147.639321  22144.942692   -152.560479
PE08 -14478.477959  12181.279787  22756.459525   -367.029797
PE09  -7455.050312 -18032.636448 -22267.177900   -661.480858
PE10    970.179910 -27169.147014  11724.561521   -669.540650
PE11  -6090.882383 -28920.359990   1588.643691    803.137599
PE12   7142.975525 -21725.992295  18790.845751  -1293.352741
PE13   5749.055291  28955.158722  -2164.587101    -26.752321
PE14 -27960.657410 -12661.523294   6022.353406    373.172246
PE15  -7506.132550  21157.832783 -19278.201863   -138.814526
PE18  17583.405589  14336.832866 -10612.312612    766.793936
PE19  28270.950435   2027.434697  -8541.889442    926.046202
PE21  15382.337794   8182.888310 -23931.269683   -628.022254
PE24   2859.000593 -21809.762013  19802.648488  -1096.627235
PE25 -15032.234882  -8595.090641  24009.532015     11.168014
PE26  15645.906552  19235.389756  16174.713098   -213.153399
PE27  -2723.999796  21744.271122 -19892.181265   -502.723632
PE29  25380.012601  13037.527746   7896.436501    -45.255143
PE30 -18983.224450  22298.816811  -4267.207138   -919.758446
PE31  18995.854804 -22318.777718   4179.902806    -42.740404
PE33  16234.392756   -571.571003  24754.750955     16.122420
PE34 -16143.293202   1065.687941 -24783.953155   -145.630547
PE36 -15366.477905 -19722.270592 -15834.261002   -310.406043
PG02  16884.159212   2854.632072  20865.200740   -315.808785
PG03  20588.523598  -9369.677801  13664.284716    598.299875
PG04  25011.615245   -400.434715  -9136.124081    478.525184
PG05 -14506.269484  -5540.234736 -21734.837290   -192.826666
PG06  -4768.015846 -25657.101132   4681.462909   -110.400143
PG07   9747.418442 -14519.139296 -19323.225293    -20.505461
PG08  25912.258097   6338.903297  -2737.099551    412.026606
PG09  19141.006236  -8332.389783 -16550.738343    441.203130
PG10  -6907.510908  21494.057127  13930.493801   -193.744559
PG11 -12498.298651 -21672.418693  -8972.869798   -749.812507
PG12 -20455.085821   4333.891891  16066.662083   -551.702051
PG13 -21025.191798 -14002.342796  -8819.825526    685.786757
PG14  10376.696804 -22065.796079  10289.289158    538.586419
PG15 -26325.551004  -3341.546332  -2886.138785    227.122372
PG16  10760.640791  10976.489207 -22008.059692   -129.829283
PG17   3555.580911 -14876.750467  22128.273626    560.756336
PG18  -8429.664395  16399.175821 -19000.958788   -660.257217
PG19  -8268.591163 -16509.673795  19104.957136    562.097907
PG20  -6737.470961 -16058.690449 -20015.669204    368.788635
PG21  17941.866716  10019.064612  17779.932231     97.590884
PG22   4283.355186 -20375.739708  17061.979046    -78.971187
PG23 -16563.776389  20581.023707    927.914907    362.078701
PG24 -17606.823013  -5235.417678  18858.996120   -480.557234
PG25 -19641.414361  16568.736508   5795.407261    499.042154
PG26   2173.614455  19436.453555 -17972.201259     28.046724
PG27  19944.717400  12923.056815 -12590.727770    -34.724528
PG28   4295.847038  25340.516064   6679.096934   -477.200426
PG29 -20410.226238   5682.141812 -16137.685881   -564.201045
PG30   1991.704896 -23150.403216 -12472.503468   -283.065027
PG31  10706.141826  23677.268005  -4666.938164   -221.857355
PG32    702.129353  15562.174480  21751.877229   -574.484240
PJ02 -35707.548644  21789.783970   -960.509480      0.400516
PJ03 -19940.522140  24548.815403 -23236.163494     -6.563711
PJ04 -28913.535298  29075.468603  15910.572381     21.679047
PR01 -24387.151272   6413.261220   3861.686924    104.241087
PR03   5239.131790  10020.356310  22912.591149    111.288530
PR04  20534.562432   3856.027451  14674.174037    263.726128
PR05  25131.488770  -4231.450765  -1416.187959    140.624284
PR07  -5587.669279  -9909.098445 -22788.689905     94.871490
PR08 -20722.366435  -3575.684986 -14350.372261     -6.265685
PR09   9927.258203 -23161.888938  -3646.305685    220.227738
PR11  -7562.306140  -9927.800146  22251.971244      7.050932
PR12 -13641.497721  10475.305249  18852.836517     47.172390
PR14  -1327.899111  21884.785669 -13045.068421     27.226515
PR15   8461.222399   8293.235937 -22574.648607     74.174871
PR16  13467.821637 -10387.229099 -18989.935659     30.755263
PR17  11512.386121  20957.009227  -8802.783095    139.370336
PR18  17518.574371  16936.360511   7641.727034    171.612649
PR19  15339.161663   6350.045372  19370.316333   -298.247917
PR20   2703.870542 -12943.438061  21822.290283   -121.868961
PR21 -10761.257377 -20991.466822   9756.221407   -150.841275
PR22 -17362.902900 -16534.688705  -8665.050201     -8.486640
PR24  -2011.393820  13706.491789 -21388.132397    -79.900115
PR26 -19609.632536  -4276.877620 -15735.313798   -133.556680
EOF
